{
  "norad_id": 58652,
  "name": "SHIYAN-24C 03",
  "history": [
    {
      "epoch": "2026-03-28T17:30:18.330912",
      "apogee_km": 574.3867124159824,
      "perigee_km": 572.0691273516923,
      "latitude_deg": -67.98426080410688,
      "longitude_deg": 115.22036768007092,
      "semi_major_axis_km": 6951.364919883837,
      "eccentricity": 0.0001667,
      "inclination_deg": 97.3985,
      "raan_deg": 59.6009,
      "arg_perigee_deg": 73.731,
      "mean_anomaly_deg": 286.4096,
      "mean_motion_rev_day": 14.97951079
    }
  ]
}