{"fetched_at":"2026-03-29T16:36:15Z","count":15609,"tles":[{"name":"SHIYAN-24C 03","line1":"1 58652U 23206C   26087.72937883  .00002069  00000+0  18010-3 0  9998","line2":"2 58652  97.3985  59.6009 0001667  73.7310 286.4096 14.97951079123259","category":"Other"}]}